NORAD_CAT_ID,OBJECT_NAME,OBJECT_TYPE,EPOCH,MEAN_MOTION,ECCENTRICITY,INCLINATION,RA_OF_ASC_NODE,ARG_OF_PERICENTER,MEAN_ANOMALY,BSTAR,MEAN_MOTION_DOT,MEAN_MOTION_DDOT,TLE_LINE0,TLE_LINE1,TLE_LINE2,SEMIMAJOR_AXIS,PERIOD,APOGEE,PERIGEE,DECAYED
49734.0,STARLINK-3238,PAYLOAD,2022-03-30 20:00:01,15.0885346,0.0001995,53.2173,132.8737,39.953,101.6073,-0.0022487,-0.00035912,0.0,0 STARLINK-3238,1 49734U 21115L   22089.83334491 -.00035912  00000-0 -22487-2 0  9990,2 49734  53.2173 132.8737 0001995  39.9530 101.6073 15.08853460 19282,6917.839,95.437,541.0840000000002,538.3240000000002,0.0
49734.0,STARLINK-3238,PAYLOAD,2022-03-30 22:00:00,15.08822241,0.0001962,53.2173,132.4992,40.9058,193.5641,0.0015091,0.00023799,0.0,0 STARLINK-3238,1 49734U 21115L   22089.91667824  .00023799  00000-0  15091-2 0  9999,2 49734  53.2173 132.4992 0001962  40.9058 193.5641 15.08822241  3616,6917.935,95.439,541.1569999999998,538.442,0.0
49734.0,STARLINK-3238,PAYLOAD,2022-03-31 14:00:01,15.08839788,0.0002137,53.2168,129.5081,37.8983,219.7565,0.00048389,7.421e-05,0.0,0 STARLINK-3238,1 49734U 21115L   22090.58334491  .00007421  00000-0  48389-3 0  9996,2 49734  53.2168 129.5081 0002137  37.8983 219.7565 15.08839788 19395,6917.880999999999,95.438,541.224,538.268,0.0
49734.0,STARLINK-3238,PAYLOAD,2022-03-31 22:00:00,15.08821499,0.0001897,53.2168,128.0098,40.678,228.5989,0.0024224,0.00038456,0.0,0 STARLINK-3238,1 49734U 21115L   22090.91667824  .00038456  00000-0  24224-2 0  9995,2 49734  53.2168 128.0098 0001897  40.6780 228.5989 15.08821499  3566,6917.937,95.439,541.114,538.49,0.0
49734.0,STARLINK-3238,PAYLOAD,2022-04-01 14:00:01,15.08854591,0.0002025,53.2161,125.0187,35.7695,256.704,-0.0019956,-0.00031921,0.0,0 STARLINK-3238,1 49734U 21115L   22091.58334491 -.00031921  00000-0 -19956-2 0  9998,2 49734  53.2161 125.0187 0002025  35.7695 256.7040 15.08854591  3615,6917.8359999999975,95.437,541.102,538.3,0.0
49734.0,STARLINK-3238,PAYLOAD,2022-04-01 22:00:00,15.08799131,0.0001792,53.216,123.5204,38.1945,265.8958,0.002479,0.00039342,0.0,0 STARLINK-3238,1 49734U 21115L   22091.91667824  .00039342  00000-0  24790-2 0  9999,2 49734  53.2160 123.5204 0001792  38.1945 265.8958 15.08799131 19593,6918.005,95.44,541.11,538.631,0.0
49734.0,STARLINK-3238,PAYLOAD,2022-04-02 14:00:01,15.08825675,0.0001995,53.2155,120.5292,33.4216,293.8719,0.0012401,0.00019496,0.0,0 STARLINK-3238,1 49734U 21115L   22092.58335648  .00019496  00000-0  12401-2 0  9993,2 49734  53.2155 120.5292 0001995  33.4216 293.8719 15.08825675 19695,6917.924,95.438,541.169,538.409,0.0
49734.0,STARLINK-3238,PAYLOAD,2022-04-02 22:00:01,15.08811095,0.0001862,53.2173,119.0371,39.4019,299.4364,0.0027013,0.00042932,0.0,0 STARLINK-3238,1 49734U 21115L   22092.91668981  .00042932  00000-0  27013-2 0  9995,2 49734  53.2173 119.0371 0001862  39.4019 299.4364 15.08811095 19741,6917.969,95.439,541.122,538.5459999999998,0.0
49734.0,STARLINK-3238,PAYLOAD,2022-04-03 14:00:01,15.08819587,0.0002182,53.2155,116.0398,38.2584,323.7336,0.0013187,0.0002075,0.0,0 STARLINK-3238,1 49734U 21115L   22093.58334491  .00020750  00000-0  13187-2 0  9996,2 49734  53.2155 116.0398 0002182  38.2584 323.7336 15.08819587 19842,6917.943,95.439,541.317,538.298,0.0
49734.0,STARLINK-3238,PAYLOAD,2022-04-03 22:00:00,15.08806011,0.0002022,53.2156,114.5416,43.5409,330.0392,0.0033597,0.00053539,0.0,0 STARLINK-3238,1 49734U 21115L   22093.91667824  .00053539  00000-0  33597-2 0  9990,2 49734  53.2156 114.5416 0002022  43.5409 330.0392 15.08806011  3591,6917.984,95.44,541.248,538.45,0.0
49734.0,STARLINK-3238,PAYLOAD,2022-04-04 14:00:01,15.088568,0.0002253,53.2159,111.5504,38.5204,358.2318,-0.0017557,-0.00028135,0.0,0 STARLINK-3238,1 49734U 21115L   22094.58334491 -.00028135  00000-0 -17557-2 0  9999,2 49734  53.2159 111.5504 0002253  38.5204 358.2318 15.08856800 19994,6917.829000000002,95.436,541.253,538.135,0.0
49734.0,STARLINK-3238,PAYLOAD,2022-04-04 22:00:00,15.08804036,0.0002039,53.2163,110.0522,42.4386,5.9323,0.0034163,0.0005445,0.0,0 STARLINK-3238,1 49734U 21115L   22094.91667824  .00054450  00000-0  34163-2 0  9994,2 49734  53.2163 110.0522 0002039  42.4386   5.9323 15.08804036  3573,6917.99,95.44,541.266,538.445,0.0
49734.0,STARLINK-3238,PAYLOAD,2022-04-05 14:00:01,15.08856708,0.0002279,53.2166,107.061,37.9844,33.6135,-0.002302,-0.00036756,0.0,0 STARLINK-3238,1 49734U 21115L   22095.58335648 -.00036756  00000-0 -23020-2 0  9995,2 49734  53.2166 107.0610 0002279  37.9844  33.6135 15.08856708  3576,6917.829000000002,95.436,541.271,538.118,0.0
49734.0,STARLINK-3238,PAYLOAD,2022-04-05 16:00:00,15.08866384,0.0002213,53.2167,106.6864,39.4905,124.9424,-0.004385,-0.00069456,0.0,0 STARLINK-3238,1 49734U 21115L   22095.66667824 -.00069456  00000-0 -43850-2 0  9994,2 49734  53.2167 106.6864 0002213  39.4905 124.9424 15.08866384 20166,6917.8,95.436,541.196,538.134,0.0
49734.0,STARLINK-3238,PAYLOAD,2022-04-05 22:00:00,15.08800044,0.0002056,53.217,105.563,41.7458,41.3985,0.0031883,0.00050764,0.0,0 STARLINK-3238,1 49734U 21115L   22095.91667824  .00050764  00000-0  31883-2 0  9995,2 49734  53.2170 105.5630 0002056  41.7458  41.3985 15.08800044  3620,6918.003000000002,95.44,541.29,538.445,0.0
49734.0,STARLINK-3238,PAYLOAD,2022-04-06 06:00:02,15.08839513,0.0002237,53.2172,104.0682,40.7624,54.0129,-0.0012762,-0.00020542,0.0,0 STARLINK-3238,1 49734U 21115L   22096.25002315 -.00020542  00000-0 -12762-2 0  9999,2 49734  53.2172 104.0682 0002237  40.7624  54.0129 15.08839513 20249,6917.882,95.438,541.294,538.1990000000002,0.0
49734.0,STARLINK-3238,PAYLOAD,2022-04-06 14:00:01,15.0884092,0.0002292,53.2172,102.572,38.586,67.7085,-0.0001466,-2.621e-05,0.0,0 STARLINK-3238,1 49734U 21115L   22096.58334491 -.00002621  00000-0 -14660-3 0  9996,2 49734  53.2172 102.5720 0002292  38.5860  67.7085 15.08840920  3600,6917.878000000002,95.437,541.328,538.1569999999998,0.0
49734.0,STARLINK-3238,PAYLOAD,2022-04-06 22:00:00,15.08833306,0.0002077,53.2177,101.0742,43.1092,74.7875,0.00096024,0.00015025,0.0,0 STARLINK-3238,1 49734U 21115L   22096.91667824  .00015025  00000-0  96024-3 0  9996,2 49734  53.2177 101.0742 0002077  43.1092  74.7875 15.08833306 20348,6917.901,95.438,541.203,538.3290000000002,0.0
49734.0,STARLINK-3238,PAYLOAD,2022-04-07 14:00:01,15.08837765,0.0002234,53.2175,98.0831,38.6368,102.4322,-0.00065016,-0.0001062,0.0,0 STARLINK-3238,1 49734U 21115L   22097.58334491 -.00010620  00000-0 -65016-3 0  9996,2 49734  53.2175  98.0831 0002234  38.6368 102.4322 15.08837765  3609,6917.887,95.438,541.298,538.207,0.0
49734.0,STARLINK-3238,PAYLOAD,2022-04-07 20:00:01,15.08812675,0.000203,53.2178,96.9596,42.5905,17.1807,0.0029561,0.00047038,0.0,0 STARLINK-3238,1 49734U 21115L   22097.83334491  .00047038  00000-0  29561-2 0  9999,2 49734  53.2178  96.9596 0002030  42.5905  17.1807 15.08812675 20480,6917.964,95.439,541.2330000000002,538.425,0.0
49734.0,STARLINK-3238,PAYLOAD,2022-04-07 22:00:00,15.08820778,0.0002033,53.2179,96.5854,43.846,108.8186,0.002734,0.0004347,0.0,0 STARLINK-3238,1 49734U 21115L   22097.91667824  .00043470  00000-0  27340-2 0  9996,2 49734  53.2179  96.5854 0002033  43.8460 108.8186 15.08820778  3568,6917.939,95.439,541.211,538.398,0.0
49734.0,STARLINK-3238,PAYLOAD,2022-04-08 14:00:03,15.08876318,0.000219,53.2175,93.5941,40.4605,135.5203,-0.0030945,-0.00049251,0.0,0 STARLINK-3238,1 49734U 21115L   22098.58336806 -.00049251  00000-0 -30945-2 0  9993,2 49734  53.2175  93.5941 0002190  40.4605 135.5203 15.08876318 20608,6917.769,95.435,541.149,538.119,0.0
49734.0,STARLINK-3238,PAYLOAD,2022-04-08 22:00:00,15.08821596,0.0001969,53.2176,92.0966,44.3298,143.1466,0.0020307,0.00032162,0.0,0 STARLINK-3238,1 49734U 21115L   22098.91667824  .00032162  00000-0  20307-2 0  9999,2 49734  53.2176  92.0966 0001969  44.3298 143.1466 15.08821596  3575,6917.937,95.439,541.164,538.44,0.0
49734.0,STARLINK-3238,PAYLOAD,2022-04-09 06:00:00,15.08841461,0.0002147,53.2175,90.6021,41.0458,158.0165,-0.00079528,-0.00012924,0.0,0 STARLINK-3238,1 49734U 21115L   22099.25001157 -.00012924  00000-0 -79528-3 0  9994,2 49734  53.2175  90.6021 0002147  41.0458 158.0165 15.08841461 20709,6917.876,95.437,541.226,538.256,0.0
49734.0,STARLINK-3238,PAYLOAD,2022-04-09 14:00:01,15.08849579,0.0002092,53.2171,89.1053,39.3769,171.2701,-0.0035396,-0.00056198,0.0,0 STARLINK-3238,1 49734U 21115L   22099.58334491 -.00056198  00000-0 -35396-2 0  9995,2 49734  53.2171  89.1053 0002092  39.3769 171.2701 15.08849579  3608,6917.851,95.437,541.163,538.269,0.0
49734.0,STARLINK-3238,PAYLOAD,2022-04-09 22:00:00,15.08810306,0.000193,53.2172,87.6078,44.4144,177.8213,0.0022288,0.00035333,0.0,0 STARLINK-3238,1 49734U 21115L   22099.91667824  .00035333  00000-0  22288-2 0  9993,2 49734  53.2172  87.6078 0001930  44.4144 177.8213 15.08810306  3609,6917.971,95.439,541.1709999999998,538.501,0.0
49734.0,STARLINK-3238,PAYLOAD,2022-04-10 06:00:02,15.08828281,0.0002134,53.2171,86.1132,41.057,192.8213,5.7974e-05,6.34e-06,0.0,0 STARLINK-3238,1 49734U 21115L   22100.25002315  .00000634  00000-0  57974-4 0  9999,2 49734  53.2171  86.1132 0002134  41.0570 192.8213 15.08828281 20850,6917.916,95.438,541.257,538.305,0.0
49734.0,STARLINK-3238,PAYLOAD,2022-04-10 14:00:01,15.08853616,0.0002091,53.2168,84.6163,40.4728,204.9218,-0.0016302,-0.0002615,0.0,0 STARLINK-3238,1 49734U 21115L   22100.58334491 -.00026150  00000-0 -16302-2 0  9999,2 49734  53.2168  84.6163 0002091  40.4728 204.9218 15.08853616  3595,6917.839,95.437,541.15,538.257,0.0
49734.0,STARLINK-3238,PAYLOAD,2022-04-10 22:00:00,15.08823132,0.0001937,53.2168,83.1195,45.0743,211.9336,0.0017678,0.00027946,0.0,0 STARLINK-3238,1 49734U 21115L   22100.91667824  .00027946  00000-0  17678-2 0  9994,2 49734  53.2168  83.1195 0001937  45.0743 211.9336 15.08823132  3601,6917.932,95.439,541.137,538.457,0.0
